OBJECT_NAME,OBJECT_ID,EPOCH,MEAN_MOTION,ECCENTRICITY,INCLINATION,RA_OF_ASC_NODE,ARG_OF_PERICENTER,MEAN_ANOMALY,EPHEMERIS_TYPE,CLASSIFICATION_TYPE,NORAD_CAT_ID,ELEMENT_SET_NO,REV_AT_EPOCH,BSTAR,MEAN_MOTION_DOT,MEAN_MOTION_DDOT
ONEWEB-0198,2021-031G,2026-06-13T15:34:48.357984,13.14502878,.00019886,87.8953,290.4171,113.4668,246.6671,0,U,48216,999,24802,.62048842E-3,.243E-5,0
ONEWEB-0189,2021-031H,2026-06-13T14:03:15.710400,13.14503683,.00019374,87.8965,290.4154,110.7585,249.3752,0,U,48217,999,24775,.45414333E-3,.181E-5,0
ONEWEB-0196,2021-031J,2026-06-13T15:20:54.322368,13.14503158,.00019679,87.8960,290.4140,104.7846,255.3502,0,U,48218,999,24776,.6134564E-3,.24E-5,0
ONEWEB-0183,2021-031K,2026-06-13T14:44:21.807456,13.14503738,.00020955,87.8960,290.4171,97.1492,262.9877,0,U,48219,999,24785,-.38023211E-3,-.128E-5,0
ONEWEB-0185,2021-031L,2026-06-13T15:22:02.076384,13.14502595,.00023293,87.8968,290.4052,102.4597,257.6793,0,U,48220,999,24778,.57518598E-3,.226E-5,0
ONEWEB-0187,2021-031M,2026-06-13T14:53:18.194208,13.14502943,.0002114,87.8956,290.4250,104.9482,255.1882,0,U,48221,999,24779,-.23258245E-3,-.73E-6,0
ONEWEB-0192,2021-031N,2026-06-13T08:41:15.823680,13.14501110,.00018583,87.8958,290.4665,103.0204,257.1134,0,U,48222,999,24767,-.12900914E-3,-.35E-6,0
ONEWEB-0219,2021-031P,2026-06-13T15:30:00.610560,13.14504524,.0002161,87.8958,290.4021,104.4155,255.7215,0,U,48223,999,24791,.55624471E-3,.219E-5,0
ONEWEB-0202,2021-031Q,2026-06-13T09:33:48.614112,13.14503017,.00017332,87.8964,290.4640,121.4352,238.6947,0,U,48224,999,24786,.79866307E-4,.42E-6,0
ONEWEB-0204,2021-031R,2026-06-13T14:02:07.488096,13.14502716,.00021772,87.8964,290.4211,95.5741,264.5637,0,U,48225,999,24778,.32743111E-3,.134E-5,0
ONEWEB-0205,2021-031S,2026-06-13T07:57:52.419744,13.14505307,.00020825,87.8968,290.4647,107.2526,252.8831,0,U,48226,999,24776,.63952231E-3,.25E-5,0
ONEWEB-0206,2021-031T,2026-06-13T14:37:30.552096,13.14503308,.00018085,87.8964,290.4111,95.7499,264.3837,0,U,48227,999,24775,-.55341722E-3,-.192E-5,0
ONEWEB-0182,2021-031U,2026-06-13T14:30:39.582720,13.14502943,.00021012,87.8960,290.4194,96.0365,264.1004,0,U,48228,999,24796,-.4154321E-3,-.141E-5,0
ONEWEB-0186,2021-031V,2026-06-13T14:46:38.535456,13.14502936,.00020076,87.8970,290.4078,102.6461,257.4893,0,U,48229,999,24791,-.40540412E-3,-.138E-5,0
ONEWEB-0181,2021-031W,2026-06-13T14:14:40.761312,13.14503509,.00019677,87.8952,290.4422,106.5864,253.5482,0,U,48230,999,24776,-.77287074E-4,-.16E-6,0
ONEWEB-0188,2021-031X,2026-06-13T15:09:28.782432,13.14504716,.00019767,87.8951,290.4339,101.0319,259.1033,0,U,48231,999,24767,.40083955E-3,.161E-5,0
ONEWEB-0220,2021-031Y,2026-06-13T14:16:56.512128,13.14502296,.00022037,87.8970,290.4135,104.9208,255.2166,0,U,48232,999,24793,-.27502397E-3,-.89E-6,0
ONEWEB-0165,2021-031Z,2026-06-13T14:58:03.324576,13.14501596,.00019131,87.8961,290.4210,112.6941,247.4391,0,U,48233,999,24789,-.58489103E-4,-.9E-7,0
ONEWEB-0199,2021-031AA,2026-06-13T14:35:13.585632,13.14503139,.00018549,87.8969,290.4099,94.9791,265.1550,0,U,48234,999,24779,-.55095323E-3,-.191E-5,0
ONEWEB-0203,2021-031AB,2026-06-13T14:21:31.795488,13.14502632,.00017473,87.8967,290.4148,101.7345,258.3981,0,U,48235,999,24780,-.40549417E-3,-.138E-5,0
ONEWEB-0197,2021-031AC,2026-06-13T15:34:24.209184,13.14504099,.00021674,87.8958,290.3916,97.9345,262.2031,0,U,48236,999,24772,.51410682E-3,.203E-5,0
ONEWEB-0194,2021-031AD,2026-06-13T15:04:54.943680,13.14503219,.00017142,87.8962,290.4176,96.7652,263.3672,0,U,48237,999,24789,.32762588E-3,.134E-5,0
ONEWEB-0193,2021-031AE,2026-06-13T15:27:44.997120,13.14502682,.00015501,87.8959,290.4049,91.4579,268.6729,0,U,48238,999,24784,.64184448E-3,.251E-5,0
ONEWEB-0191,2021-031AF,2026-06-13T08:25:18.186816,13.14502600,.00020459,87.8968,290.4616,96.3657,263.7706,0,U,48239,999,24766,.35109495E-3,.143E-5,0
ONEWEB-0195,2021-031AG,2026-06-13T15:10:36.756768,13.14501780,.00019824,87.8966,290.4065,112.1076,248.0264,0,U,48240,999,24768,.3266501E-3,.134E-5,0
ONEWEB-0201,2021-031AH,2026-06-13T14:53:40.795584,13.14504535,.00022329,87.8958,290.4250,98.9985,261.1398,0,U,48241,999,24791,-.22609615E-3,-.71E-6,0
ONEWEB-0207,2021-031AJ,2026-06-13T14:24:56.985120,13.14503139,.00022011,87.8968,290.4134,99.8630,260.2748,0,U,48242,999,24782,-.36563464E-3,-.123E-5,0
ONEWEB-0208,2021-031AK,2026-06-13T13:58:41.806848,13.14503440,.00018684,87.8964,290.4237,111.3426,248.7904,0,U,48243,999,24783,.18818452E-3,.83E-6,0
ONEWEB-0200,2021-031AL,2026-06-13T14:55:46.440192,13.14503118,.00019778,87.8969,290.4025,102.9246,257.2105,0,U,48244,999,24776,-.16201891E-3,-.47E-6,0
ONEWEB-0217,2021-031AM,2026-06-13T15:18:37.197792,13.14502879,.0001946,87.8967,290.4039,111.2218,248.9120,0,U,48245,999,24771,.4822356E-3,.192E-5,0
