ONEWEB-0198             
1 48216U 21031G   26164.64917081  .00000243  00000+0  62049-3 0  9995
2 48216  87.8953 290.4171 0001988 113.4668 246.6671 13.14502878248029
ONEWEB-0189             
1 48217U 21031H   26164.58559850  .00000181  00000+0  45414-3 0  9993
2 48217  87.8965 290.4154 0001937 110.7585 249.3752 13.14503683247750
ONEWEB-0196             
1 48218U 21031J   26164.63951762  .00000240  00000+0  61346-3 0  9996
2 48218  87.8960 290.4140 0001967 104.7846 255.3502 13.14503158247765
ONEWEB-0183             
1 48219U 21031K   26164.61414129 -.00000128  00000+0 -38023-3 0  9999
2 48219  87.8960 290.4171 0002095  97.1492 262.9877 13.14503738247858
ONEWEB-0185             
1 48220U 21031L   26164.64030181  .00000226  00000+0  57519-3 0  9994
2 48220  87.8968 290.4052 0002329 102.4597 257.6793 13.14502595247782
ONEWEB-0187             
1 48221U 21031M   26164.62034947 -.00000073  00000+0 -23258-3 0  9992
2 48221  87.8956 290.4250 0002114 104.9482 255.1882 13.14502943247792
ONEWEB-0192             
1 48222U 21031N   26164.36198870 -.00000035  00000+0 -12901-3 0  9991
2 48222  87.8958 290.4665 0001858 103.0204 257.1134 13.14501110247675
ONEWEB-0219             
1 48223U 21031P   26164.64584040  .00000219  00000+0  55624-3 0  9992
2 48223  87.8958 290.4021 0002161 104.4155 255.7215 13.14504524247913
ONEWEB-0202             
1 48224U 21031Q   26164.39847933  .00000042  00000+0  79866-4 0  9997
2 48224  87.8964 290.4640 0001733 121.4352 238.6947 13.14503017247862
ONEWEB-0204             
1 48225U 21031R   26164.58480889  .00000134  00000+0  32743-3 0  9996
2 48225  87.8964 290.4211 0002177  95.5741 264.5637 13.14502716247783
ONEWEB-0205             
1 48226U 21031S   26164.33185671  .00000250  00000+0  63952-3 0  9996
2 48226  87.8968 290.4647 0002082 107.2526 252.8831 13.14505307247761
ONEWEB-0206             
1 48227U 21031T   26164.60938139 -.00000192  00000+0 -55342-3 0  9993
2 48227  87.8964 290.4111 0001808  95.7499 264.3837 13.14503308247751
ONEWEB-0182             
1 48228U 21031U   26164.60462480 -.00000141  00000+0 -41543-3 0  9997
2 48228  87.8960 290.4194 0002101  96.0365 264.1004 13.14502943247963
ONEWEB-0186             
1 48229U 21031V   26164.61572379 -.00000138  00000+0 -40540-3 0  9990
2 48229  87.8970 290.4078 0002007 102.6461 257.4893 13.14502936247910
ONEWEB-0181             
1 48230U 21031W   26164.59352733 -.00000016  00000+0 -77287-4 0  9993
2 48230  87.8952 290.4422 0001967 106.5864 253.5482 13.14503509247760
ONEWEB-0188             
1 48231U 21031X   26164.63158313  .00000161  00000+0  40084-3 0  9990
2 48231  87.8951 290.4339 0001976 101.0319 259.1033 13.14504716247677
ONEWEB-0220             
1 48232U 21031Y   26164.59509852 -.00000089  00000+0 -27502-3 0  9995
2 48232  87.8970 290.4135 0002203 104.9208 255.2166 13.14502296247930
ONEWEB-0165             
1 48233U 21031Z   26164.62364959 -.00000009  00000+0 -58489-4 0  9998
2 48233  87.8961 290.4210 0001913 112.6941 247.4391 13.14501596247892
ONEWEB-0199             
1 48234U 21031AA  26164.60779613 -.00000191  00000+0 -55095-3 0  9995
2 48234  87.8969 290.4099 0001854  94.9791 265.1550 13.14503139247793
ONEWEB-0203             
1 48235U 21031AB  26164.59828467 -.00000138  00000+0 -40549-3 0  9995
2 48235  87.8967 290.4148 0001747 101.7345 258.3981 13.14502632247801
ONEWEB-0197             
1 48236U 21031AC  26164.64889131  .00000203  00000+0  51411-3 0  9998
2 48236  87.8958 290.3916 0002167  97.9345 262.2031 13.14504099247727
ONEWEB-0194             
1 48237U 21031AD  26164.62841370  .00000134  00000+0  32763-3 0  9992
2 48237  87.8962 290.4176 0001714  96.7652 263.3672 13.14503219247891
ONEWEB-0193             
1 48238U 21031AE  26164.64427080  .00000251  00000+0  64184-3 0  9995
2 48238  87.8959 290.4049 0001550  91.4579 268.6729 13.14502682247844
ONEWEB-0191             
1 48239U 21031AF  26164.35090494  .00000143  00000+0  35109-3 0  9994
2 48239  87.8968 290.4616 0002045  96.3657 263.7706 13.14502600247667
ONEWEB-0195             
1 48240U 21031AG  26164.63236987  .00000134  00000+0  32665-3 0  9990
2 48240  87.8966 290.4065 0001982 112.1076 248.0264 13.14501780247681
ONEWEB-0201             
1 48241U 21031AH  26164.62061106 -.00000071  00000+0 -22610-3 0  9990
2 48241  87.8958 290.4250 0002232  98.9985 261.1398 13.14504535247919
ONEWEB-0207             
1 48242U 21031AJ  26164.60065955 -.00000123  00000+0 -36563-3 0  9995
2 48242  87.8968 290.4134 0002201  99.8630 260.2748 13.14503139247823
ONEWEB-0208             
1 48243U 21031AK  26164.58242832  .00000083  00000+0  18818-3 0  9990
2 48243  87.8964 290.4237 0001868 111.3426 248.7904 13.14503440247836
ONEWEB-0200             
1 48244U 21031AL  26164.62206528 -.00000047  00000+0 -16202-3 0  9995
2 48244  87.8969 290.4025 0001977 102.9246 257.2105 13.14503118247766
ONEWEB-0217             
1 48245U 21031AM  26164.63793053  .00000192  00000+0  48224-3 0  9999
2 48245  87.8967 290.4039 0001946 111.2218 248.9120 13.14502879247710
